[
  {
    "COMMENT": "GENERATED VIA SPACETRACK.ORG API",
    "ORIGINATOR": "18 SPCS",
    "NORAD_CAT_ID": "46984",
    "OBJECT_NAME": "S6 MICHAEL FREILICH",
    "OBJECT_TYPE": "PAYLOAD",
    "CLASSIFICATION_TYPE": "U",
    "INTLDES": "20086A",
    "EPOCH": "2023-05-13 05:36:26",
    "EPOCH_MICROSECONDS": "345664",
    "MEAN_MOTION": "12.80931517",
    "ECCENTRICITY": "0.0007983",
    "INCLINATION": "66.0457",
    "RA_OF_ASC_NODE": "324.0677",
    "ARG_OF_PERICENTER": "263.6198",
    "MEAN_ANOMALY": "96.3906",
    "EPHEMERIS_TYPE": "0",
    "ELEMENT_SET_NO": "999",
    "REV_AT_EPOCH": "11560",
    "BSTAR": "0",
    "MEAN_MOTION_DOT": "-0.00000061",
    "MEAN_MOTION_DDOT": "0",
    "FILE": "3906915",
    "TLE_LINE0": "0 S6 MICHAEL FREILICH",
    "TLE_LINE1": "1 46984U 20086A   23133.23363826 -.00000061  00000-0  00000-0 0  9990",
    "TLE_LINE2": "2 46984  66.0457 324.0677 0007983 263.6198  96.3906 12.80931517115605",
    "OBJECT_ID": "2020-086A",
    "OBJECT_NUMBER": "46984",
    "SEMIMAJOR_AXIS": "7715.864",
    "PERIOD": "112.418",
    "APOGEE": "1343.889",
    "PERIGEE": "1331.569",
    "DECAYED": "0"
  },
  {
    "COMMENT": "GENERATED VIA SPACETRACK.ORG API",
    "ORIGINATOR": "18 SPCS",
    "NORAD_CAT_ID": "46984",
    "OBJECT_NAME": "S6 MICHAEL FREILICH",
    "OBJECT_TYPE": "PAYLOAD",
    "CLASSIFICATION_TYPE": "U",
    "INTLDES": "20086A",
    "EPOCH": "2023-05-13 14:58:35",
    "EPOCH_MICROSECONDS": "119776",
    "MEAN_MOTION": "12.80931517",
    "ECCENTRICITY": "0.0007965",
    "INCLINATION": "66.0457",
    "RA_OF_ASC_NODE": "323.2571",
    "ARG_OF_PERICENTER": "263.5633",
    "MEAN_ANOMALY": "96.4472",
    "EPHEMERIS_TYPE": "0",
    "ELEMENT_SET_NO": "999",
    "REV_AT_EPOCH": "11565",
    "BSTAR": "0",
    "MEAN_MOTION_DOT": "-0.00000061",
    "MEAN_MOTION_DDOT": "0",
    "FILE": "3907148",
    "TLE_LINE0": "0 S6 MICHAEL FREILICH",
    "TLE_LINE1": "1 46984U 20086A   23133.62401759 -.00000061  00000-0  00000-0 0  9991",
    "TLE_LINE2": "2 46984  66.0457 323.2571 0007965 263.5633  96.4472 12.80931517115656",
    "OBJECT_ID": "2020-086A",
    "OBJECT_NUMBER": "46984",
    "SEMIMAJOR_AXIS": "7715.864",
    "PERIOD": "112.418",
    "APOGEE": "1343.875",
    "PERIGEE": "1331.583",
    "DECAYED": "0"
  },
  {
    "COMMENT": "GENERATED VIA SPACETRACK.ORG API",
    "ORIGINATOR": "18 SPCS",
    "NORAD_CAT_ID": "46984",
    "OBJECT_NAME": "S6 MICHAEL FREILICH",
    "OBJECT_TYPE": "PAYLOAD",
    "CLASSIFICATION_TYPE": "U",
    "INTLDES": "20086A",
    "EPOCH": "2023-05-13 22:28:18",
    "EPOCH_MICROSECONDS": "143904",
    "MEAN_MOTION": "12.80931536",
    "ECCENTRICITY": "0.0007972",
    "INCLINATION": "66.0455",
    "RA_OF_ASC_NODE": "322.6082",
    "ARG_OF_PERICENTER": "263.3696",
    "MEAN_ANOMALY": "96.6422",
    "EPHEMERIS_TYPE": "0",
    "ELEMENT_SET_NO": "999",
    "REV_AT_EPOCH": "11569",
    "BSTAR": "0",
    "MEAN_MOTION_DOT": "-0.00000061",
    "MEAN_MOTION_DDOT": "0",
    "FILE": "3907382",
    "TLE_LINE0": "0 S6 MICHAEL FREILICH",
    "TLE_LINE1": "1 46984U 20086A   23133.93632111 -.00000061  00000-0  00000+0 0  9992",
    "TLE_LINE2": "2 46984  66.0455 322.6082 0007972 263.3696  96.6422 12.80931536115691",
    "OBJECT_ID": "2020-086A",
    "OBJECT_NUMBER": "46984",
    "SEMIMAJOR_AXIS": "7715.864",
    "PERIOD": "112.418",
    "APOGEE": "1343.880",
    "PERIGEE": "1331.578",
    "DECAYED": "0"
  },
  {
    "COMMENT": "GENERATED VIA SPACETRACK.ORG API",
    "ORIGINATOR": "18 SPCS",
    "NORAD_CAT_ID": "46984",
    "OBJECT_NAME": "S6 MICHAEL FREILICH",
    "OBJECT_TYPE": "PAYLOAD",
    "CLASSIFICATION_TYPE": "U",
    "INTLDES": "20086A",
    "EPOCH": "2023-05-14 13:27:44",
    "EPOCH_MICROSECONDS": "156736",
    "MEAN_MOTION": "12.80931547",
    "ECCENTRICITY": "0.0007974",
    "INCLINATION": "66.0455",
    "RA_OF_ASC_NODE": "321.3115",
    "ARG_OF_PERICENTER": "263.1022",
    "MEAN_ANOMALY": "96.9089",
    "EPHEMERIS_TYPE": "0",
    "ELEMENT_SET_NO": "999",
    "REV_AT_EPOCH": "11577",
    "BSTAR": "0",
    "MEAN_MOTION_DOT": "-0.00000061",
    "MEAN_MOTION_DDOT": "0",
    "FILE": "3907744",
    "TLE_LINE0": "0 S6 MICHAEL FREILICH",
    "TLE_LINE1": "1 46984U 20086A   23134.56092774 -.00000061  00000-0  00000-0 0  9998",
    "TLE_LINE2": "2 46984  66.0455 321.3115 0007974 263.1022  96.9089 12.80931547115770",
    "OBJECT_ID": "2020-086A",
    "OBJECT_NUMBER": "46984",
    "SEMIMAJOR_AXIS": "7715.864",
    "PERIOD": "112.418",
    "APOGEE": "1343.882",
    "PERIGEE": "1331.576",
    "DECAYED": "0"
  },
  {
    "COMMENT": "GENERATED VIA SPACETRACK.ORG API",
    "ORIGINATOR": "18 SPCS",
    "NORAD_CAT_ID": "46984",
    "OBJECT_NAME": "S6 MICHAEL FREILICH",
    "OBJECT_TYPE": "PAYLOAD",
    "CLASSIFICATION_TYPE": "U",
    "INTLDES": "20086A",
    "EPOCH": "2023-05-14 19:05:01",
    "EPOCH_MICROSECONDS": "414464",
    "MEAN_MOTION": "12.80931544",
    "ECCENTRICITY": "0.0007985",
    "INCLINATION": "66.0455",
    "RA_OF_ASC_NODE": "320.8251",
    "ARG_OF_PERICENTER": "263.5082",
    "MEAN_ANOMALY": "96.502",
    "EPHEMERIS_TYPE": "0",
    "ELEMENT_SET_NO": "999",
    "REV_AT_EPOCH": "11580",
    "BSTAR": "0",
    "MEAN_MOTION_DOT": "-0.00000061",
    "MEAN_MOTION_DDOT": "0",
    "FILE": "3908005",
    "TLE_LINE0": "0 S6 MICHAEL FREILICH",
    "TLE_LINE1": "1 46984U 20086A   23134.79515526 -.00000061  00000-0  00000-0 0  9998",
    "TLE_LINE2": "2 46984  66.0455 320.8251 0007985 263.5082  96.5020 12.80931544115809",
    "OBJECT_ID": "2020-086A",
    "OBJECT_NUMBER": "46984",
    "SEMIMAJOR_AXIS": "7715.864",
    "PERIOD": "112.418",
    "APOGEE": "1343.890",
    "PERIGEE": "1331.568",
    "DECAYED": "0"
  },
  {
    "COMMENT": "GENERATED VIA SPACETRACK.ORG API",
    "ORIGINATOR": "18 SPCS",
    "NORAD_CAT_ID": "46984",
    "OBJECT_NAME": "S6 MICHAEL FREILICH",
    "OBJECT_TYPE": "PAYLOAD",
    "CLASSIFICATION_TYPE": "U",
    "INTLDES": "20086A",
    "EPOCH": "2023-05-14 22:49:52",
    "EPOCH_MICROSECONDS": "929984",
    "MEAN_MOTION": "12.80931543",
    "ECCENTRICITY": "0.0007951",
    "INCLINATION": "66.0453",
    "RA_OF_ASC_NODE": "320.5",
    "ARG_OF_PERICENTER": "263.2836",
    "MEAN_ANOMALY": "96.7277",
    "EPHEMERIS_TYPE": "0",
    "ELEMENT_SET_NO": "999",
    "REV_AT_EPOCH": "11582",
    "BSTAR": "0",
    "MEAN_MOTION_DOT": "-0.00000061",
    "MEAN_MOTION_DDOT": "0",
    "FILE": "3908239",
    "TLE_LINE0": "0 S6 MICHAEL FREILICH",
    "TLE_LINE1": "1 46984U 20086A   23134.95130706 -.00000061  00000-0  00000+0 0  9998",
    "TLE_LINE2": "2 46984  66.0453 320.5000 0007951 263.2836  96.7277 12.80931543115820",
    "OBJECT_ID": "2020-086A",
    "OBJECT_NUMBER": "46984",
    "SEMIMAJOR_AXIS": "7715.864",
    "PERIOD": "112.418",
    "APOGEE": "1343.864",
    "PERIGEE": "1331.594",
    "DECAYED": "0"
  },
  {
    "COMMENT": "GENERATED VIA SPACETRACK.ORG API",
    "ORIGINATOR": "18 SPCS",
    "NORAD_CAT_ID": "46984",
    "OBJECT_NAME": "S6 MICHAEL FREILICH",
    "OBJECT_TYPE": "PAYLOAD",
    "CLASSIFICATION_TYPE": "U",
    "INTLDES": "20086A",
    "EPOCH": "2023-05-15 04:27:10",
    "EPOCH_MICROSECONDS": "185984",
    "MEAN_MOTION": "12.80931549",
    "ECCENTRICITY": "0.0007962",
    "INCLINATION": "66.0454",
    "RA_OF_ASC_NODE": "320.0139",
    "ARG_OF_PERICENTER": "263.1814",
    "MEAN_ANOMALY": "96.8295",
    "EPHEMERIS_TYPE": "0",
    "ELEMENT_SET_NO": "999",
    "REV_AT_EPOCH": "11585",
    "BSTAR": "0",
    "MEAN_MOTION_DOT": "-0.00000061",
    "MEAN_MOTION_DDOT": "0",
    "FILE": "3908681",
    "TLE_LINE0": "0 S6 MICHAEL FREILICH",
    "TLE_LINE1": "1 46984U 20086A   23135.18553456 -.00000061  00000-0  00000-0 0  9996",
    "TLE_LINE2": "2 46984  66.0454 320.0139 0007962 263.1814  96.8295 12.80931549115856",
    "OBJECT_ID": "2020-086A",
    "OBJECT_NUMBER": "46984",
    "SEMIMAJOR_AXIS": "7715.864",
    "PERIOD": "112.418",
    "APOGEE": "1343.872",
    "PERIGEE": "1331.586",
    "DECAYED": "0"
  },
  {
    "COMMENT": "GENERATED VIA SPACETRACK.ORG API",
    "ORIGINATOR": "18 SPCS",
    "NORAD_CAT_ID": "46984",
    "OBJECT_NAME": "S6 MICHAEL FREILICH",
    "OBJECT_TYPE": "PAYLOAD",
    "CLASSIFICATION_TYPE": "U",
    "INTLDES": "20086A",
    "EPOCH": "2023-05-15 21:19:01",
    "EPOCH_MICROSECONDS": "966080",
    "MEAN_MOTION": "12.80931538",
    "ECCENTRICITY": "0.0007976",
    "INCLINATION": "66.0451",
    "RA_OF_ASC_NODE": "318.5538",
    "ARG_OF_PERICENTER": "263.2351",
    "MEAN_ANOMALY": "96.7756",
    "EPHEMERIS_TYPE": "0",
    "ELEMENT_SET_NO": "999",
    "REV_AT_EPOCH": "11594",
    "BSTAR": "0",
    "MEAN_MOTION_DOT": "-0.00000061",
    "MEAN_MOTION_DDOT": "0",
    "FILE": "3908892",
    "TLE_LINE0": "0 S6 MICHAEL FREILICH",
    "TLE_LINE1": "1 46984U 20086A   23135.88821720 -.00000061  00000-0  00000-0 0  9995",
    "TLE_LINE2": "2 46984  66.0451 318.5538 0007976 263.2351  96.7756 12.80931538115949",
    "OBJECT_ID": "2020-086A",
    "OBJECT_NUMBER": "46984",
    "SEMIMAJOR_AXIS": "7715.864",
    "PERIOD": "112.418",
    "APOGEE": "1343.883",
    "PERIGEE": "1331.575",
    "DECAYED": "0"
  }
]